ARIANE 40 R/B           
1 20443U 90005H   25337.14894432  .00000451  00000+0  15713-3 0  9991
2 20443  98.3258  35.5974 0011025 131.9588 228.2541 14.39786377878919
DELTA 2 R/B(1)          
1 20453U 90008B   25336.99159622  .00041288  00000+0  68546-3 0  9997
2 20453  35.6064  83.4309 0112581  89.3771 271.9860 15.44126941911124
COSMOS 2058             
1 20465U 90010A   25336.95300888  .00005986  00000+0  36330-3 0  9992
2 20465  82.4631 142.6579 0008644 314.4846  45.5676 15.10323960927639
SL-14 R/B               
1 20466U 90010B   25337.16733682  .00000637  00000+0  74530-4 0  9992
2 20466  82.5023 358.0379 0018305 256.9949 102.9222 14.83456779914170
SL-14 R/B               
1 20511U 90018B   25337.02487095  .00000713  00000+0  86721-4 0  9990
2 20511  82.5201 313.4454 0017667  53.5709 306.7130 14.82029977908263
HST                     
1 20580U 90037B   25337.12538104  .00010235  00000+0  35768-3 0  9990
2 20580  28.4702 337.9179 0002094 131.6621 228.4154 15.27834499758529
SL-16 R/B               
1 20625U 90046B   25336.91966204  .00000314  00000+0  18659-3 0  9999
2 20625  70.9980 141.1446 0011953  91.5237 268.7255 14.14997766834708
COSMOS 2084             
1 20663U 90055A   25337.19936550  .00004202  00000+0  30591-3 0  9992
2 20663  62.7910 304.4982 0033223 173.5264 186.6272 15.04918725921797
SL-6 R/B(2)             
1 20666U 90055D   25337.05399340  .00003031  00000+0  23833-3 0  9990
2 20666  62.7832 222.3244 0011864 301.1596  58.8339 15.03005048923662
SL-8 R/B                
1 20775U 90078B   25337.09992564  .00032447  00000+0  10051-2 0  9997
2 20775  82.9044 337.9364 0375180 338.3087  20.2582 14.85319904794947
SL-8 R/B                
1 21088U 91006B   25337.18128772  .00000088  00000+0  73559-4 0  9999
2 21088  82.9429 241.8220 0021530 308.1115 204.9262 13.77488325750784
OKEAN-3                 
1 21397U 91039A   25336.96906054  .00004462  00000+0  32045-3 0  9994
2 21397  82.5187  70.5036 0013211 301.3470  58.6463 15.04014255850497
