CCSDS_OMM_VERS = 2.0
CREATION_DATE  = 
ORIGINATOR     = 

OBJECT_NAME    = ARIANE 40 R/B
OBJECT_ID      = 1990-005H
CENTER_NAME    = EARTH
REF_FRAME      = TEME
TIME_SYSTEM    = UTC
MEAN_ELEMENT_THEORY = SGP/SGP4

EPOCH          = 2025-12-03T03:34:28.789248
MEAN_MOTION    = 14.39786377
ECCENTRICITY   = .0011025
INCLINATION    = 98.3258
RA_OF_ASC_NODE = 35.5974
ARG_OF_PERICENTER = 131.9588
MEAN_ANOMALY   = 228.2541

EPHEMERIS_TYPE = 0
CLASSIFICATION_TYPE = U
NORAD_CAT_ID   = 20443
ELEMENT_SET_NO = 999
REV_AT_EPOCH   = 87891
BSTAR          = .15713E-3
MEAN_MOTION_DOT = .451E-5
MEAN_MOTION_DDOT = 0

CCSDS_OMM_VERS = 2.0
CREATION_DATE  = 
ORIGINATOR     = 

OBJECT_NAME    = DELTA 2 R/B(1)
OBJECT_ID      = 1990-008B
CENTER_NAME    = EARTH
REF_FRAME      = TEME
TIME_SYSTEM    = UTC
MEAN_ELEMENT_THEORY = SGP/SGP4

EPOCH          = 2025-12-02T23:47:53.913408
MEAN_MOTION    = 15.44126941
ECCENTRICITY   = .0112581
INCLINATION    = 35.6064
RA_OF_ASC_NODE = 83.4309
ARG_OF_PERICENTER = 89.3771
MEAN_ANOMALY   = 271.9860

EPHEMERIS_TYPE = 0
CLASSIFICATION_TYPE = U
NORAD_CAT_ID   = 20453
ELEMENT_SET_NO = 999
REV_AT_EPOCH   = 91112
BSTAR          = .68546E-3
MEAN_MOTION_DOT = .41288E-3
MEAN_MOTION_DDOT = 0

CCSDS_OMM_VERS = 2.0
CREATION_DATE  = 
ORIGINATOR     = 

OBJECT_NAME    = COSMOS 2058
OBJECT_ID      = 1990-010A
CENTER_NAME    = EARTH
REF_FRAME      = TEME
TIME_SYSTEM    = UTC
MEAN_ELEMENT_THEORY = SGP/SGP4

EPOCH          = 2025-12-02T22:52:19.967232
MEAN_MOTION    = 15.10323960
ECCENTRICITY   = .0008644
INCLINATION    = 82.4631
RA_OF_ASC_NODE = 142.6579
ARG_OF_PERICENTER = 314.4846
MEAN_ANOMALY   = 45.5676

EPHEMERIS_TYPE = 0
CLASSIFICATION_TYPE = U
NORAD_CAT_ID   = 20465
ELEMENT_SET_NO = 999
REV_AT_EPOCH   = 92763
BSTAR          = .3633E-3
MEAN_MOTION_DOT = .5986E-4
MEAN_MOTION_DDOT = 0

CCSDS_OMM_VERS = 2.0
CREATION_DATE  = 
ORIGINATOR     = 

OBJECT_NAME    = SL-14 R/B
OBJECT_ID      = 1990-010B
CENTER_NAME    = EARTH
REF_FRAME      = TEME
TIME_SYSTEM    = UTC
MEAN_ELEMENT_THEORY = SGP/SGP4

EPOCH          = 2025-12-03T04:00:57.901248
MEAN_MOTION    = 14.83456779
ECCENTRICITY   = .0018305
INCLINATION    = 82.5023
RA_OF_ASC_NODE = 358.0379
ARG_OF_PERICENTER = 256.9949
MEAN_ANOMALY   = 102.9222

EPHEMERIS_TYPE = 0
CLASSIFICATION_TYPE = U
NORAD_CAT_ID   = 20466
ELEMENT_SET_NO = 999
REV_AT_EPOCH   = 91417
BSTAR          = .7453E-4
MEAN_MOTION_DOT = .637E-5
MEAN_MOTION_DDOT = 0

CCSDS_OMM_VERS = 2.0
CREATION_DATE  = 
ORIGINATOR     = 

OBJECT_NAME    = SL-14 R/B
OBJECT_ID      = 1990-018B
CENTER_NAME    = EARTH
REF_FRAME      = TEME
TIME_SYSTEM    = UTC
MEAN_ELEMENT_THEORY = SGP/SGP4

EPOCH          = 2025-12-03T00:35:48.850080
MEAN_MOTION    = 14.82029977
ECCENTRICITY   = .0017667
INCLINATION    = 82.5201
RA_OF_ASC_NODE = 313.4454
ARG_OF_PERICENTER = 53.5709
MEAN_ANOMALY   = 306.7130

EPHEMERIS_TYPE = 0
CLASSIFICATION_TYPE = U
NORAD_CAT_ID   = 20511
ELEMENT_SET_NO = 999
REV_AT_EPOCH   = 90826
BSTAR          = .86721E-4
MEAN_MOTION_DOT = .713E-5
MEAN_MOTION_DDOT = 0

CCSDS_OMM_VERS = 2.0
CREATION_DATE  = 
ORIGINATOR     = 

OBJECT_NAME    = HST
OBJECT_ID      = 1990-037B
CENTER_NAME    = EARTH
REF_FRAME      = TEME
TIME_SYSTEM    = UTC
MEAN_ELEMENT_THEORY = SGP/SGP4

EPOCH          = 2025-12-03T03:00:32.921856
MEAN_MOTION    = 15.27834499
ECCENTRICITY   = .0002094
INCLINATION    = 28.4702
RA_OF_ASC_NODE = 337.9179
ARG_OF_PERICENTER = 131.6621
MEAN_ANOMALY   = 228.4154

EPHEMERIS_TYPE = 0
CLASSIFICATION_TYPE = U
NORAD_CAT_ID   = 20580
ELEMENT_SET_NO = 999
REV_AT_EPOCH   = 75852
BSTAR          = .35768E-3
MEAN_MOTION_DOT = .10235E-3
MEAN_MOTION_DDOT = 0

CCSDS_OMM_VERS = 2.0
CREATION_DATE  = 
ORIGINATOR     = 

OBJECT_NAME    = SL-16 R/B
OBJECT_ID      = 1990-046B
CENTER_NAME    = EARTH
REF_FRAME      = TEME
TIME_SYSTEM    = UTC
MEAN_ELEMENT_THEORY = SGP/SGP4

EPOCH          = 2025-12-02T22:04:18.800256
MEAN_MOTION    = 14.14997766
ECCENTRICITY   = .0011953
INCLINATION    = 70.9980
RA_OF_ASC_NODE = 141.1446
ARG_OF_PERICENTER = 91.5237
MEAN_ANOMALY   = 268.7255

EPHEMERIS_TYPE = 0
CLASSIFICATION_TYPE = U
NORAD_CAT_ID   = 20625
ELEMENT_SET_NO = 999
REV_AT_EPOCH   = 83470
BSTAR          = .18659E-3
MEAN_MOTION_DOT = .314E-5
MEAN_MOTION_DDOT = 0

CCSDS_OMM_VERS = 2.0
CREATION_DATE  = 
ORIGINATOR     = 

OBJECT_NAME    = COSMOS 2084
OBJECT_ID      = 1990-055A
CENTER_NAME    = EARTH
REF_FRAME      = TEME
TIME_SYSTEM    = UTC
MEAN_ELEMENT_THEORY = SGP/SGP4

EPOCH          = 2025-12-03T04:47:05.179200
MEAN_MOTION    = 15.04918725
ECCENTRICITY   = .0033223
INCLINATION    = 62.7910
RA_OF_ASC_NODE = 304.4982
ARG_OF_PERICENTER = 173.5264
MEAN_ANOMALY   = 186.6272

EPHEMERIS_TYPE = 0
CLASSIFICATION_TYPE = U
NORAD_CAT_ID   = 20663
ELEMENT_SET_NO = 999
REV_AT_EPOCH   = 92179
BSTAR          = .30591E-3
MEAN_MOTION_DOT = .4202E-4
MEAN_MOTION_DDOT = 0

CCSDS_OMM_VERS = 2.0
CREATION_DATE  = 
ORIGINATOR     = 

OBJECT_NAME    = SL-6 R/B(2)
OBJECT_ID      = 1990-055D
CENTER_NAME    = EARTH
REF_FRAME      = TEME
TIME_SYSTEM    = UTC
MEAN_ELEMENT_THEORY = SGP/SGP4

EPOCH          = 2025-12-03T01:17:45.029760
MEAN_MOTION    = 15.03005048
ECCENTRICITY   = .0011864
INCLINATION    = 62.7832
RA_OF_ASC_NODE = 222.3244
ARG_OF_PERICENTER = 301.1596
MEAN_ANOMALY   = 58.8339

EPHEMERIS_TYPE = 0
CLASSIFICATION_TYPE = U
NORAD_CAT_ID   = 20666
ELEMENT_SET_NO = 999
REV_AT_EPOCH   = 92366
BSTAR          = .23833E-3
MEAN_MOTION_DOT = .3031E-4
MEAN_MOTION_DDOT = 0

CCSDS_OMM_VERS = 2.0
CREATION_DATE  = 
ORIGINATOR     = 

OBJECT_NAME    = SL-8 R/B
OBJECT_ID      = 1990-078B
CENTER_NAME    = EARTH
REF_FRAME      = TEME
TIME_SYSTEM    = UTC
MEAN_ELEMENT_THEORY = SGP/SGP4

EPOCH          = 2025-12-03T02:23:53.575296
MEAN_MOTION    = 14.85319904
ECCENTRICITY   = .037518
INCLINATION    = 82.9044
RA_OF_ASC_NODE = 337.9364
ARG_OF_PERICENTER = 338.3087
MEAN_ANOMALY   = 20.2582

EPHEMERIS_TYPE = 0
CLASSIFICATION_TYPE = U
NORAD_CAT_ID   = 20775
ELEMENT_SET_NO = 999
REV_AT_EPOCH   = 79494
BSTAR          = .10051E-2
MEAN_MOTION_DOT = .32447E-3
MEAN_MOTION_DDOT = 0

CCSDS_OMM_VERS = 2.0
CREATION_DATE  = 
ORIGINATOR     = 

OBJECT_NAME    = SL-8 R/B
OBJECT_ID      = 1991-006B
CENTER_NAME    = EARTH
REF_FRAME      = TEME
TIME_SYSTEM    = UTC
MEAN_ELEMENT_THEORY = SGP/SGP4

EPOCH          = 2025-12-03T04:21:03.259008
MEAN_MOTION    = 13.77488325
ECCENTRICITY   = .002153
INCLINATION    = 82.9429
RA_OF_ASC_NODE = 241.8220
ARG_OF_PERICENTER = 308.1115
MEAN_ANOMALY   = 204.9262

EPHEMERIS_TYPE = 0
CLASSIFICATION_TYPE = U
NORAD_CAT_ID   = 21088
ELEMENT_SET_NO = 999
REV_AT_EPOCH   = 75078
BSTAR          = .73559E-4
MEAN_MOTION_DOT = .88E-6
MEAN_MOTION_DDOT = 0

CCSDS_OMM_VERS = 2.0
CREATION_DATE  = 
ORIGINATOR     = 

OBJECT_NAME    = OKEAN-3
OBJECT_ID      = 1991-039A
CENTER_NAME    = EARTH
REF_FRAME      = TEME
TIME_SYSTEM    = UTC
MEAN_ELEMENT_THEORY = SGP/SGP4

EPOCH          = 2025-12-02T23:15:26.830656
MEAN_MOTION    = 15.04014255
ECCENTRICITY   = .0013211
INCLINATION    = 82.5187
RA_OF_ASC_NODE = 70.5036
ARG_OF_PERICENTER = 301.3470
MEAN_ANOMALY   = 58.6463

EPHEMERIS_TYPE = 0
CLASSIFICATION_TYPE = U
NORAD_CAT_ID   = 21397
ELEMENT_SET_NO = 999
REV_AT_EPOCH   = 85049
BSTAR          = .32045E-3
MEAN_MOTION_DOT = .4462E-4
MEAN_MOTION_DDOT = 0

